NORAD_CAT_ID,OBJECT_NAME,OBJECT_TYPE,EPOCH,MEAN_MOTION,ECCENTRICITY,INCLINATION,RA_OF_ASC_NODE,ARG_OF_PERICENTER,MEAN_ANOMALY,BSTAR,MEAN_MOTION_DOT,MEAN_MOTION_DDOT,TLE_LINE0,TLE_LINE1,TLE_LINE2,SEMIMAJOR_AXIS,PERIOD,APOGEE,PERIGEE,DECAYED
53419.0,STARLINK-4476,PAYLOAD,2024-02-20 18:24:48,15.08853696,0.0001124,53.2143,231.6756,73.3953,286.7162,0.00024928,3.683e-05,0.0,0 STARLINK-4476,1 53419U 22097AH  24051.76722456  .00003683  00000-0  24928-3 0  9991,2 53419  53.2143 231.6756 0001124  73.3953 286.7162 15.08853696 85714,6917.839,95.437,540.481,538.926,0.0
53419.0,STARLINK-4476,PAYLOAD,2024-02-21 15:04:48,15.0884514,0.0001132,53.2151,227.8092,81.8434,278.2687,0.00031062,4.66e-05,0.0,0 STARLINK-4476,1 53419U 22097AH  24052.62834262  .00004660  00000-0  31062-3 0  9999,2 53419  53.2151 227.8092 0001132  81.8434 278.2687 15.08845140 85847,6917.865,95.437,540.513,538.947,0.0
53419.0,STARLINK-4476,PAYLOAD,2024-02-21 18:15:34,15.088527,0.0001137,53.2152,227.213,80.372,279.7401,4.5883e-05,4.43e-06,0.0,0 STARLINK-4476,1 53419U 22097AH  24052.76081656  .00000443  00000-0  45883-4 0  9997,2 53419  53.2152 227.2130 0001137  80.3720 279.7401 15.08852700 85404,6917.842,95.437,540.493,538.92,0.0
53419.0,STARLINK-4476,PAYLOAD,2024-02-21 21:26:21,15.08824225,0.0001184,53.216,226.6191,91.9977,268.1151,0.00054782,8.438e-05,0.0,0 STARLINK-4476,1 53419U 22097AH  24052.89330287  .00008438  00000-0  54782-3 0  9997,2 53419  53.2160 226.6191 0001184  91.9977 268.1151 15.08824225 85884,6917.929,95.439,540.613,538.975,0.0
53419.0,STARLINK-4476,PAYLOAD,2024-02-22 14:55:35,15.08841611,0.0001084,53.2161,223.3478,78.6589,281.4524,4.1218e-05,3.68e-06,0.0,0 STARLINK-4476,1 53419U 22097AH  24053.62194098  .00000368  00000-0  41218-4 0  9992,2 53419  53.2161 223.3478 0001084  78.6589 281.4524 15.08841611 85999,6917.875,95.437,540.49,538.991,0.0
53419.0,STARLINK-4476,PAYLOAD,2024-02-22 18:06:21,15.08845021,0.0001114,53.2171,222.7539,85.6662,274.4458,-5.9323e-06,-3.82e-06,0.0,0 STARLINK-4476,1 53419U 22097AH  24053.75441922 -.00000382  00000-0 -59323-5 0  9992,2 53419  53.2171 222.7539 0001114  85.6662 274.4458 15.08845021 86016,6917.865,95.437,540.501,538.959,0.0
53419.0,STARLINK-4476,PAYLOAD,2024-02-23 11:35:36,15.08840347,0.0001103,53.2163,219.4787,71.0162,289.0949,1.0003e-09,-2.88e-06,0.0,0 STARLINK-4476,1 53419U 22097AH  24054.48306114 -.00000288  00000-0  10003-8 0  9995,2 53419  53.2163 219.4787 0001103  71.0162 289.0949 15.08840347 85660,6917.879,95.438,540.507,538.981,0.0
53419.0,STARLINK-4476,PAYLOAD,2024-02-23 14:46:22,15.0884303,0.0001107,53.2167,218.8876,79.8001,280.3116,2.6422e-05,1.33e-06,0.0,0 STARLINK-4476,1 53419U 22097AH  24054.61553924  .00000133  00000-0  26422-4 0  9999,2 53419  53.2167 218.8876 0001107  79.8001 280.3116 15.08843030 86144,6917.871,95.437,540.502,538.97,0.0
53419.0,STARLINK-4476,PAYLOAD,2024-02-23 17:57:08,15.08846236,0.0001096,53.217,218.2945,82.3256,277.786,5.2575e-05,5.49e-06,0.0,0 STARLINK-4476,1 53419U 22097AH  24054.74801646  .00000549  00000-0  52575-4 0  9999,2 53419  53.2170 218.2945 0001096  82.3256 277.7860 15.08846236 86166,6917.861,95.437,540.485,538.968,0.0
53419.0,STARLINK-4476,PAYLOAD,2024-02-24 11:26:20,15.08871051,0.0001023,53.2169,215.0213,78.7735,281.3372,0.00032457,4.886e-05,0.0,0 STARLINK-4476,1 53419U 22097AH  24055.47662538  .00004886  00000-0  32457-3 0  9999,2 53419  53.2169 215.0213 0001023  78.7735 281.3372 15.08871051 85811,6917.785,95.436,540.358,538.943,0.0
53419.0,STARLINK-4476,PAYLOAD,2024-02-24 14:37:09,15.08828531,0.0001177,53.2174,214.4293,51.7559,308.3539,-3.5276e-05,-8.49e-06,0.0,0 STARLINK-4476,1 53419U 22097AH  24055.60913963 -.00000849  00000-0 -35276-4 0  9995,2 53419  53.2174 214.4293 0001177  51.7559 308.3539 15.08828531 86296,6917.915,95.438,540.595,538.966,0.0
53419.0,STARLINK-4476,PAYLOAD,2024-02-24 17:47:55,15.08830927,0.0001149,53.2167,213.8311,52.0999,308.0097,-3.4444e-05,-8.36e-06,0.0,0 STARLINK-4476,1 53419U 22097AH  24055.74161783 -.00000836  00000-0 -34444-4 0  9997,2 53419  53.2167 213.8311 0001149  52.0999 308.0097 15.08830927 85852,6917.908,95.438,540.568,538.978,0.0
53419.0,STARLINK-4476,PAYLOAD,2024-02-24 20:58:42,15.08831511,0.0001506,53.2168,213.2387,82.1488,277.9675,-2.3946e-05,-6.69e-06,0.0,0 STARLINK-4476,1 53419U 22097AH  24055.87409791 -.00000669  00000-0 -23946-4 0  9994,2 53419  53.2168 213.2387 0001506  82.1488 277.9675 15.08831511 86334,6917.906,95.438,540.813,538.729,0.0
53419.0,STARLINK-4476,PAYLOAD,2024-02-25 14:27:57,15.08830106,0.0001151,53.2149,209.9649,77.0249,283.0872,-6.6046e-05,-1.338e-05,0.0,0 STARLINK-4476,1 53419U 22097AH  24056.60274613 -.00001338  00000-0 -66046-4 0  9991,2 53419  53.2149 209.9649 0001151  77.0249 283.0872 15.08830106 86448,6917.911,95.438,540.572,538.979,0.0
53419.0,STARLINK-4476,PAYLOAD,2024-02-25 17:38:43,15.08833003,0.0001307,53.2164,209.3699,77.3039,282.8099,-3.1566e-05,-7.9e-06,0.0,0 STARLINK-4476,1 53419U 22097AH  24056.73522307 -.00000790  00000-0 -31566-4 0  9991,2 53419  53.2164 209.3699 0001307  77.3039 282.8099 15.08833003 86466,6917.902,95.438,540.671,538.863,0.0
53419.0,STARLINK-4476,PAYLOAD,2024-02-26 03:11:02,15.08838304,0.0001224,53.2166,207.5875,83.6318,276.4813,-9.216e-05,-1.754e-05,0.0,0 STARLINK-4476,1 53419U 22097AH  24057.13266289 -.00001754  00000-0 -92160-4 0  9998,2 53419  53.2166 207.5875 0001224  83.6318 276.4813 15.08838304 86060,6917.886,95.438,540.597,538.904,0.0
53419.0,STARLINK-4476,PAYLOAD,2024-02-26 14:18:44,15.08818834,0.0001396,53.2169,205.506,69.7388,290.3754,0.00015141,2.121e-05,0.0,0 STARLINK-4476,1 53419U 22097AH  24057.59634945  .00002121  00000-0  15141-3 0  9996,2 53419  53.2169 205.5060 0001396  69.7388 290.3754 15.08818834 86592,6917.945,95.439,540.776,538.844,0.0
53419.0,STARLINK-4476,PAYLOAD,2024-02-26 19:04:53,15.08825604,0.0001433,53.2166,204.6136,75.3359,284.7792,0.00023951,3.524e-05,0.0,0 STARLINK-4476,1 53419U 22097AH  24057.79506868  .00003524  00000-0  23951-3 0  9996,2 53419  53.2166 204.6136 0001433  75.3359 284.7792 15.08825604 86161,6917.924,95.438,540.781,538.798,0.0
53419.0,STARLINK-4476,PAYLOAD,2024-02-27 14:09:31,15.08833881,0.0001384,53.2165,201.0476,85.1636,274.9514,0.00031232,4.685e-05,0.0,0 STARLINK-4476,1 53419U 22097AH  24058.58995248  .00004685  00000-0  31232-3 0  9998,2 53419  53.2165 201.0476 0001384  85.1636 274.9514 15.08833881 86743,6917.899,95.438,540.722,538.807,0.0
53419.0,STARLINK-4476,PAYLOAD,2024-02-27 18:55:40,15.08844664,0.0001356,53.2155,200.1545,87.5785,272.5362,0.00034728,5.244e-05,0.0,0 STARLINK-4476,1 53419U 22097AH  24058.78866817  .00005244  00000-0  34728-3 0  9994,2 53419  53.2155 200.1545 0001356  87.5785 272.5362 15.08844664 86318,6917.866,95.437,540.669,538.793,0.0
53419.0,STARLINK-4476,PAYLOAD,2024-02-28 02:52:36,15.08839447,0.0001492,53.2158,198.6664,95.1534,264.9628,0.00028894,4.313e-05,0.0,0 STARLINK-4476,1 53419U 22097AH  24059.11987231  .00004313  00000-0  28894-3 0  9999,2 53419  53.2158 198.6664 0001492  95.1534 264.9628 15.08839447 86360,6917.882,95.438,540.779,538.715,0.0
53419.0,STARLINK-4476,PAYLOAD,2024-02-28 14:00:18,15.08842633,0.0001507,53.2157,196.5852,93.36,266.7565,0.00025604,3.79e-05,0.0,0 STARLINK-4476,1 53419U 22097AH  24059.58355159  .00003790  00000-0  25604-3 0  9992,2 53419  53.2157 196.5852 0001507  93.3600 266.7565 15.08842633 86895,6917.872,95.437,540.78,538.695,0.0
53419.0,STARLINK-4476,PAYLOAD,2024-02-28 15:35:41,15.08845134,0.000155,53.2161,196.2865,98.2535,261.8633,0.00028147,4.195e-05,0.0,0 STARLINK-4476,1 53419U 22097AH  24059.64979054  .00004195  00000-0  28147-3 0  9990,2 53419  53.2161 196.2865 0001550  98.2535 261.8633 15.08845134 86903,6917.865,95.437,540.802,538.657,0.0
53419.0,STARLINK-4476,PAYLOAD,2024-02-29 12:15:42,15.08846948,0.0001491,53.2167,192.4204,108.8854,251.23,0.00014678,2.049e-05,0.0,0 STARLINK-4476,1 53419U 22097AH  24060.51090705  .00002049  00000-0  14678-3 0  9995,2 53419  53.2167 192.4204 0001491 108.8854 251.2300 15.08846948 86571,6917.859,95.437,540.756,538.693,0.0
53419.0,STARLINK-4476,PAYLOAD,2024-02-29 15:26:28,15.08848205,0.0001347,53.2162,191.8294,87.0824,273.0323,0.00014309,1.991e-05,0.0,0 STARLINK-4476,1 53419U 22097AH  24060.64338675  .00001991  00000-0  14309-3 0  9996,2 53419  53.2162 191.8294 0001347  87.0824 273.0323 15.08848205 87052,6917.855,95.437,540.652,538.788,0.0
53419.0,STARLINK-4476,PAYLOAD,2024-03-01 13:41:52,15.08843285,0.0001411,53.2163,187.6654,87.3107,272.8047,6.7714e-05,7.9e-06,0.0,0 STARLINK-4476,1 53419U 22097AH  24061.57074713  .00000790  00000-0  67714-4 0  9994,2 53419  53.2163 187.6654 0001411  87.3107 272.8047 15.08843285 87193,6917.87,95.437,540.711,538.759,0.0
53419.0,STARLINK-4476,PAYLOAD,2024-03-01 15:17:15,15.08845317,0.0001288,53.2173,187.3699,84.3119,275.802,0.00014212,1.975e-05,0.0,0 STARLINK-4476,1 53419U 22097AH  24061.63698571  .00001975  00000-0  14212-3 0  9995,2 53419  53.2173 187.3699 0001288  84.3119 275.8020 15.08845317 87206,6917.864,95.437,540.62,538.838,0.0
53419.0,STARLINK-4476,PAYLOAD,2024-03-02 13:32:39,15.08841064,0.0001387,53.2172,183.209,92.2438,267.8713,1.7787e-05,-5e-08,0.0,0 STARLINK-4476,1 53419U 22097AH  24062.56434638 -.00000005  00000-0  17787-4 0  9995,2 53419  53.2172 183.2090 0001387  92.2438 267.8713 15.08841064 87347,6917.877,95.437,540.702,538.783,0.0
53419.0,STARLINK-4476,PAYLOAD,2024-03-03 14:58:50,15.08840255,0.0001468,53.2189,178.4492,86.9941,273.1219,-1.1742e-05,-4.75e-06,0.0,0 STARLINK-4476,1 53419U 22097AH  24063.62419161 -.00000475  00000-0 -11742-4 0  9994,2 53419  53.2189 178.4492 0001468  86.9941 273.1219 15.08840255 87506,6917.88,95.438,540.76,538.729,0.0
53419.0,STARLINK-4476,PAYLOAD,2024-03-04 13:14:12,15.08863832,0.0001643,53.2174,174.2797,120.7759,239.3395,0.00043306,6.615e-05,0.0,0 STARLINK-4476,1 53419U 22097AH  24064.55153390  .00006615  00000-0  43306-3 0  9996,2 53419  53.2174 174.2797 0001643 120.7759 239.3395 15.08863832 87180,6917.808,95.436,540.809,538.536,0.0
